[{"OBJECT_NAME":"HULIANWANG DIGUI-65","OBJECT_ID":"2025-174H","EPOCH":"2026-03-03T11:36:40.603392","MEAN_MOTION":13.24422104,"ECCENTRICITY":0.0001211,"INCLINATION":86.4847,"RA_OF_ASC_NODE":287.6158,"ARG_OF_PERICENTER":86.3165,"MEAN_ANOMALY":273.8107,"EPHEMERIS_TYPE":0,"CLASSIFICATION_TYPE":"U","NORAD_CAT_ID":65171,"ELEMENT_SET_NO":999,"REV_AT_EPOCH":2679,"BSTAR":0.00018903,"MEAN_MOTION_DOT":9.6e-7,"MEAN_MOTION_DDOT":0},{"OBJECT_NAME":"HULIANWANG DIGUI-66","OBJECT_ID":"2025-174J","EPOCH":"2026-03-03T11:25:49.976832","MEAN_MOTION":13.24421726,"ECCENTRICITY":0.0001245,"INCLINATION":86.4882,"RA_OF_ASC_NODE":287.6838,"ARG_OF_PERICENTER":88.7071,"MEAN_ANOMALY":271.4205,"EPHEMERIS_TYPE":0,"CLASSIFICATION_TYPE":"U","NORAD_CAT_ID":65172,"ELEMENT_SET_NO":999,"REV_AT_EPOCH":2679,"BSTAR":0.00015918,"MEAN_MOTION_DOT":8.3e-7,"MEAN_MOTION_DDOT":0},{"OBJECT_NAME":"HULIANWANG DIGUI-67","OBJECT_ID":"2025-174K","EPOCH":"2026-03-03T11:47:38.104800","MEAN_MOTION":13.24421361,"ECCENTRICITY":0.0001243,"INCLINATION":86.4894,"RA_OF_ASC_NODE":287.7121,"ARG_OF_PERICENTER":86.9719,"MEAN_ANOMALY":273.1557,"EPHEMERIS_TYPE":0,"CLASSIFICATION_TYPE":"U","NORAD_CAT_ID":65173,"ELEMENT_SET_NO":999,"REV_AT_EPOCH":2676,"BSTAR":0.00018716,"MEAN_MOTION_DOT":9.5e-7,"MEAN_MOTION_DDOT":0},{"OBJECT_NAME":"HULIANWANG DIGUI-68","OBJECT_ID":"2025-178A","EPOCH":"2026-03-03T10:31:17.185440","MEAN_MOTION":13.24423692,"ECCENTRICITY":0.0002044,"INCLINATION":86.4936,"RA_OF_ASC_NODE":49.2067,"ARG_OF_PERICENTER":80.9827,"MEAN_ANOMALY":279.1539,"EPHEMERIS_TYPE":0,"CLASSIFICATION_TYPE":"U","NORAD_CAT_ID":65228,"ELEMENT_SET_NO":999,"REV_AT_EPOCH":2631,"BSTAR":7.9837e-5,"MEAN_MOTION_DOT":4.9e-7,"MEAN_MOTION_DDOT":0},{"OBJECT_NAME":"HULIANWANG DIGUI-69","OBJECT_ID":"2025-178B","EPOCH":"2026-03-03T10:20:50.515872","MEAN_MOTION":13.24417505,"ECCENTRICITY":0.0001972,"INCLINATION":86.4957,"RA_OF_ASC_NODE":49.2437,"ARG_OF_PERICENTER":82.1682,"MEAN_ANOMALY":277.9676,"EPHEMERIS_TYPE":0,"CLASSIFICATION_TYPE":"U","NORAD_CAT_ID":65229,"ELEMENT_SET_NO":999,"REV_AT_EPOCH":2631,"BSTAR":5.166e-5,"MEAN_MOTION_DOT":3.7e-7,"MEAN_MOTION_DDOT":0},{"OBJECT_NAME":"HULIANWANG DIGUI-70","OBJECT_ID":"2025-178C","EPOCH":"2026-03-03T11:58:41.446848","MEAN_MOTION":13.24418443,"ECCENTRICITY":0.0002071,"INCLINATION":86.4895,"RA_OF_ASC_NODE":49.0907,"ARG_OF_PERICENTER":81.0841,"MEAN_ANOMALY":279.0527,"EPHEMERIS_TYPE":0,"CLASSIFICATION_TYPE":"U","NORAD_CAT_ID":65230,"ELEMENT_SET_NO":999,"REV_AT_EPOCH":2632,"BSTAR":1.1895e-5,"MEAN_MOTION_DOT":2.0e-7,"MEAN_MOTION_DDOT":0},{"OBJECT_NAME":"HULIANWANG DIGUI-71","OBJECT_ID":"2025-178D","EPOCH":"2026-03-03T11:47:46.648896","MEAN_MOTION":13.24419391,"ECCENTRICITY":0.000201,"INCLINATION":86.4954,"RA_OF_ASC_NODE":49.2064,"ARG_OF_PERICENTER":81.8851,"MEAN_ANOMALY":278.2511,"EPHEMERIS_TYPE":0,"CLASSIFICATION_TYPE":"U","NORAD_CAT_ID":65231,"ELEMENT_SET_NO":999,"REV_AT_EPOCH":2632,"BSTAR":8.1128e-7,"MEAN_MOTION_DOT":1.5e-7,"MEAN_MOTION_DDOT":0},{"OBJECT_NAME":"HULIANWANG DIGUI-72","OBJECT_ID":"2025-178E","EPOCH":"2026-03-03T11:36:50.297472","MEAN_MOTION":13.24419973,"ECCENTRICITY":0.0002007,"INCLINATION":86.4938,"RA_OF_ASC_NODE":49.1673,"ARG_OF_PERICENTER":82.9257,"MEAN_ANOMALY":277.2105,"EPHEMERIS_TYPE":0,"CLASSIFICATION_TYPE":"U","NORAD_CAT_ID":65232,"ELEMENT_SET_NO":999,"REV_AT_EPOCH":2632,"BSTAR":3.6916e-5,"MEAN_MOTION_DOT":3.1e-7,"MEAN_MOTION_DDOT":0},{"OBJECT_NAME":"HULIANWANG DIGUI-73","OBJECT_ID":"2025-187A","EPOCH":"2026-03-03T12:14:33.275040","MEAN_MOTION":13.2934231,"ECCENTRICITY":0.0001057,"INCLINATION":50.0036,"RA_OF_ASC_NODE":224.8834,"ARG_OF_PERICENTER":132.1742,"MEAN_ANOMALY":227.9219,"EPHEMERIS_TYPE":0,"CLASSIFICATION_TYPE":"U","NORAD_CAT_ID":65305,"ELEMENT_SET_NO":999,"REV_AT_EPOCH":2564,"BSTAR":5.8639e-5,"MEAN_MOTION_DOT":-9.7e-7,"MEAN_MOTION_DDOT":0},{"OBJECT_NAME":"HULIANWANG DIGUI-74","OBJECT_ID":"2025-187B","EPOCH":"2026-03-03T11:50:28.292064","MEAN_MOTION":13.293428,"ECCENTRICITY":0.0001049,"INCLINATION":50.0078,"RA_OF_ASC_NODE":224.8622,"ARG_OF_PERICENTER":132.9362,"MEAN_ANOMALY":227.1598,"EPHEMERIS_TYPE":0,"CLASSIFICATION_TYPE":"U","NORAD_CAT_ID":65306,"ELEMENT_SET_NO":999,"REV_AT_EPOCH":2564,"BSTAR":4.6505e-5,"MEAN_MOTION_DOT":-1.02e-6,"MEAN_MOTION_DDOT":0},{"OBJECT_NAME":"HULIANWANG DIGUI-75","OBJECT_ID":"2025-187C","EPOCH":"2026-03-03T11:26:30.067296","MEAN_MOTION":13.29341884,"ECCENTRICITY":0.0001046,"INCLINATION":50.0071,"RA_OF_ASC_NODE":224.7639,"ARG_OF_PERICENTER":131.9357,"MEAN_ANOMALY":228.1604,"EPHEMERIS_TYPE":0,"CLASSIFICATION_TYPE":"U","NORAD_CAT_ID":65307,"ELEMENT_SET_NO":999,"REV_AT_EPOCH":2564,"BSTAR":3.3827e-5,"MEAN_MOTION_DOT":-1.08e-6,"MEAN_MOTION_DDOT":0},{"OBJECT_NAME":"HULIANWANG DIGUI-76","OBJECT_ID":"2025-187D","EPOCH":"2026-03-03T11:02:42.740160","MEAN_MOTION":13.29339168,"ECCENTRICITY":0.0001038,"INCLINATION":49.9995,"RA_OF_ASC_NODE":225.2179,"ARG_OF_PERICENTER":129.0827,"MEAN_ANOMALY":231.0137,"EPHEMERIS_TYPE":0,"CLASSIFICATION_TYPE":"U","NORAD_CAT_ID":65308,"ELEMENT_SET_NO":999,"REV_AT_EPOCH":2563,"BSTAR":2.6418e-5,"MEAN_MOTION_DOT":-1.12e-6,"MEAN_MOTION_DDOT":0},{"OBJECT_NAME":"HULIANWANG DIGUI-77","OBJECT_ID":"2025-187E","EPOCH":"2026-03-03T10:50:28.495680","MEAN_MOTION":13.29341095,"ECCENTRICITY":0.0001076,"INCLINATION":50.003,"RA_OF_ASC_NODE":225.2272,"ARG_OF_PERICENTER":129.9171,"MEAN_ANOMALY":230.1796,"EPHEMERIS_TYPE":0,"CLASSIFICATION_TYPE":"U","NORAD_CAT_ID":65309,"ELEMENT_SET_NO":999,"REV_AT_EPOCH":2563,"BSTAR":4.3734e-5,"MEAN_MOTION_DOT":-1.04e-6,"MEAN_MOTION_DDOT":0},{"OBJECT_NAME":"HULIANWANG DIGUI-78","OBJECT_ID":"2025-187F","EPOCH":"2026-03-03T11:38:35.130048","MEAN_MOTION":13.29341619,"ECCENTRICITY":0.0001029,"INCLINATION":50.0095,"RA_OF_ASC_NODE":224.8451,"ARG_OF_PERICENTER":133.2284,"MEAN_ANOMALY":226.8675,"EPHEMERIS_TYPE":0,"CLASSIFICATION_TYPE":"U","NORAD_CAT_ID":65310,"ELEMENT_SET_NO":999,"REV_AT_EPOCH":2564,"BSTAR":7.6372e-5,"MEAN_MOTION_DOT":-8.9e-7,"MEAN_MOTION_DDOT":0},{"OBJECT_NAME":"HULIANWANG DIGUI-79","OBJECT_ID":"2025-187G","EPOCH":"2026-03-03T11:14:18.608352","MEAN_MOTION":13.29343019,"ECCENTRICITY":0.0001045,"INCLINATION":50.0024,"RA_OF_ASC_NODE":225.3052,"ARG_OF_PERICENTER":130.2409,"MEAN_ANOMALY":229.8555,"EPHEMERIS_TYPE":0,"CLASSIFICATION_TYPE":"U","NORAD_CAT_ID":65311,"ELEMENT_SET_NO":999,"REV_AT_EPOCH":2563,"BSTAR":2.9032e-5,"MEAN_MOTION_DOT":-1.11e-6,"MEAN_MOTION_DDOT":0},{"OBJECT_NAME":"HULIANWANG DIGUI-80","OBJECT_ID":"2025-187H","EPOCH":"2026-03-03T12:26:39.615648","MEAN_MOTION":13.29341087,"ECCENTRICITY":0.0001068,"INCLINATION":50.0015,"RA_OF_ASC_NODE":224.8925,"ARG_OF_PERICENTER":129.7462,"MEAN_ANOMALY":230.3504,"EPHEMERIS_TYPE":0,"CLASSIFICATION_TYPE":"U","NORAD_CAT_ID":65312,"ELEMENT_SET_NO":999,"REV_AT_EPOCH":2564,"BSTAR":3.6036e-5,"MEAN_MOTION_DOT":-1.07e-6,"MEAN_MOTION_DDOT":0}]
