HULIANWANG DIGUI-65     
1 65171U 25174H   26062.48380328  .00000096  00000+0  18903-3 0  9999
2 65171  86.4847 287.6158 0001211  86.3165 273.8107 13.24422104 26795
HULIANWANG DIGUI-66     
1 65172U 25174J   26062.47627288  .00000083  00000+0  15918-3 0  9997
2 65172  86.4882 287.6838 0001245  88.7071 271.4205 13.24421726 26791
HULIANWANG DIGUI-67     
1 65173U 25174K   26062.49141325  .00000095  00000+0  18716-3 0  9995
2 65173  86.4894 287.7121 0001243  86.9719 273.1557 13.24421361 26769
HULIANWANG DIGUI-68     
1 65228U 25178A   26062.43839335  .00000049  00000+0  79837-4 0  9990
2 65228  86.4936  49.2067 0002044  80.9827 279.1539 13.24423692 26317
HULIANWANG DIGUI-69     
1 65229U 25178B   26062.43114023  .00000037  00000+0  51660-4 0  9992
2 65229  86.4957  49.2437 0001972  82.1682 277.9676 13.24417505 26318
HULIANWANG DIGUI-70     
1 65230U 25178C   26062.49909082  .00000020  00000+0  11895-4 0  9995
2 65230  86.4895  49.0907 0002071  81.0841 279.0527 13.24418443 26328
HULIANWANG DIGUI-71     
1 65231U 25178D   26062.49151214  .00000015  00000+0  81128-6 0  9994
2 65231  86.4954  49.2064 0002010  81.8851 278.2511 13.24419391 26320
HULIANWANG DIGUI-72     
1 65232U 25178E   26062.48391548  .00000031  00000+0  36916-4 0  9991
2 65232  86.4938  49.1673 0002007  82.9257 277.2105 13.24419973 26320
HULIANWANG DIGUI-73     
1 65305U 25187A   26062.51010735 -.00000097  00000+0  58639-4 0  9991
2 65305  50.0036 224.8834 0001057 132.1742 227.9219 13.29342310 25646
HULIANWANG DIGUI-74     
1 65306U 25187B   26062.49338301 -.00000102  00000+0  46505-4 0  9997
2 65306  50.0078 224.8622 0001049 132.9362 227.1598 13.29342800 25641
HULIANWANG DIGUI-75     
1 65307U 25187C   26062.47673689 -.00000108  00000+0  33827-4 0  9996
2 65307  50.0071 224.7639 0001046 131.9357 228.1604 13.29341884 25642
HULIANWANG DIGUI-76     
1 65308U 25187D   26062.46021690 -.00000112  00000+0  26418-4 0  9998
2 65308  49.9995 225.2179 0001038 129.0827 231.0137 13.29339168 25636
HULIANWANG DIGUI-77     
1 65309U 25187E   26062.45171870 -.00000104  00000+0  43734-4 0  9995
2 65309  50.0030 225.2272 0001076 129.9171 230.1796 13.29341095 25630
HULIANWANG DIGUI-78     
1 65310U 25187F   26062.48512882 -.00000089  00000+0  76372-4 0  9998
2 65310  50.0095 224.8451 0001029 133.2284 226.8675 13.29341619 25649
HULIANWANG DIGUI-79     
1 65311U 25187G   26062.46827093 -.00000111  00000+0  29032-4 0  9997
2 65311  50.0024 225.3052 0001045 130.2409 229.8555 13.29343019 25634
HULIANWANG DIGUI-80     
1 65312U 25187H   26062.51851407 -.00000107  00000+0  36036-4 0  9997
2 65312  50.0015 224.8925 0001068 129.7462 230.3504 13.29341087 25640
